{
"type": "FeatureCollection",
"name": "qusar",
"crs": { "type": "name", "properties": { "name": "urn:ogc:def:crs:OGC:1.3:CRS84" } },
"features": [
{ "type": "Feature", "properties": { "shapeName": "Qusar District" }, "geometry": { "type": "MultiPolygon", "coordinates": [ [ [ [ 48.51110776400003, 41.737220267000055 ], [ 48.50656783200003, 41.734839917000045 ], [ 48.499882527000068, 41.729832198000054 ], [ 48.487180447000071, 41.721318174000032 ], [ 48.473141307000049, 41.708294528000067 ], [ 48.463781880000056, 41.694767157000058 ], [ 48.449742739000044, 41.678731005000031 ], [ 48.435035068000047, 41.664194765000047 ], [ 48.423670049000066, 41.652663671000028 ], [ 48.401608543000066, 41.639124516000038 ], [ 48.385563811000054, 41.628592079000043 ], [ 48.358822590000045, 41.60300608700004 ], [ 48.322053413000049, 41.589456422000069 ], [ 48.306195869000078, 41.577891775000069 ], [ 48.294643662000055, 41.572429966000072 ], [ 48.271967108000069, 41.563111690000028 ], [ 48.256564164000054, 41.554434835000052 ], [ 48.241589081000029, 41.544149636000043 ], [ 48.22019610500007, 41.529361774000051 ], [ 48.207788178000044, 41.518107858000064 ], [ 48.185111624000058, 41.515856837000058 ], [ 48.158156475000055, 41.515856837000058 ], [ 48.129062027000032, 41.51360573900007 ], [ 48.120076977000053, 41.508781690000035 ], [ 48.102534736000052, 41.49623746900005 ], [ 48.08798751300003, 41.493985683000062 ], [ 48.079430322000064, 41.500419148000049 ], [ 48.06616667600008, 41.487551574000065 ], [ 48.05033587500003, 41.469854454000028 ], [ 48.05204731200007, 41.457946380000067 ], [ 48.042668631000026, 41.443293206000078 ], [ 48.033084578000057, 41.435463080000034 ], [ 48.014190302000031, 41.433196286000054 ], [ 48.004606248000073, 41.430105076000075 ], [ 48.004058589000067, 41.42371610500004 ], [ 48.004058589000067, 41.414234529000055 ], [ 48.004606248000073, 41.40598854600006 ], [ 48.001320287000055, 41.401246628000081 ], [ 48.001046458000076, 41.392998985000077 ], [ 48.000224967000065, 41.381656753000073 ], [ 47.993926875000056, 41.372787802000062 ], [ 47.986807293000027, 41.367630874000042 ], [ 47.976401749000047, 41.358553682000036 ], [ 47.969008337000048, 41.357728420000058 ], [ 47.958876623000037, 41.357315784000036 ], [ 47.950935550000054, 41.350919601000044 ], [ 47.952030870000044, 41.34101458400005 ], [ 47.963257904000045, 41.329043996000053 ], [ 47.959150453000063, 41.32202572500006 ], [ 47.934779574000061, 41.313148585000079 ], [ 47.922106717000077, 41.306657180000059 ], [ 47.916498678000039, 41.300974601000064 ], [ 47.901427069000079, 41.298992189000046 ], [ 47.894767521000063, 41.291722824000033 ], [ 47.899455492000072, 41.28630331200003 ], [ 47.899455492000072, 41.271223778000035 ], [ 47.899455492000072, 41.260066794000068 ], [ 47.899181662000046, 41.245187829000031 ], [ 47.898798300000067, 41.233273930000053 ], [ 47.892664506000074, 41.229569510000033 ], [ 47.886881214000027, 41.222292355000036 ], [ 47.877242395000053, 41.218190326000069 ], [ 47.863047043000051, 41.219645914000068 ], [ 47.849552696000046, 41.217264025000077 ], [ 47.851101248000077, 41.215785203000053 ], [ 47.855511238000076, 41.21157360400008 ], [ 47.874087872000075, 41.201911979000045 ], [ 47.88179892800008, 41.191719392000039 ], [ 47.891087245000051, 41.185894339000072 ], [ 47.913694658000054, 41.185894339000072 ], [ 47.928766265000036, 41.186688695000043 ], [ 47.942961618000027, 41.182319616000029 ], [ 47.955754960000036, 41.182849217000069 ], [ 47.963428596000028, 41.183011758000077 ], [ 47.974506845000064, 41.183246414000052 ], [ 47.98800119100008, 41.184040803000073 ], [ 48.003248051000071, 41.188409767000053 ], [ 48.018494911000062, 41.198073400000055 ], [ 48.029009986000062, 41.200191265000058 ], [ 48.039700314000072, 41.204162075000056 ], [ 48.052381495000077, 41.212817599000061 ], [ 48.060344912000062, 41.217814514000054 ], [ 48.066850239000075, 41.222980411000037 ], [ 48.088833757000032, 41.239322264000066 ], [ 48.112611848000029, 41.250496705000046 ], [ 48.137511547000031, 41.261076787000036 ], [ 48.165344514000026, 41.276594973000044 ], [ 48.174928567000052, 41.279900103000045 ], [ 48.189989223000055, 41.280726359000028 ], [ 48.21216946100003, 41.296423222000044 ], [ 48.22750394600007, 41.301585833000047 ], [ 48.235718849000079, 41.312322743000038 ], [ 48.241743111000062, 41.321406430000025 ], [ 48.256529936000049, 41.328011946000061 ], [ 48.272412081000027, 41.329869626000061 ], [ 48.29568763900005, 41.343697343000031 ], [ 48.314581916000066, 41.352776623000068 ], [ 48.327451930000052, 41.363505036000049 ], [ 48.344703226000036, 41.374850457000036 ], [ 48.382316528000047, 41.389724378000039 ], [ 48.392831604000037, 41.399885840000024 ], [ 48.41088248300008, 41.403052721000051 ], [ 48.419995549000078, 41.406747220000057 ], [ 48.433840398000029, 41.412420503000078 ], [ 48.445582233000039, 41.416906001000029 ], [ 48.457499319000078, 41.422710299000073 ], [ 48.469766907000064, 41.43036062200008 ], [ 48.476776957000027, 41.436295591000032 ], [ 48.488518792000036, 41.442361884000036 ], [ 48.511476707000043, 41.446054129000061 ], [ 48.52654831500007, 41.450009873000056 ], [ 48.539692160000072, 41.455943031000061 ], [ 48.555289522000066, 41.458711652000034 ], [ 48.576319674000047, 41.464116710000042 ], [ 48.590164523000055, 41.465830415000028 ], [ 48.61540070500007, 41.47387103300008 ], [ 48.624163268000075, 41.477956864000078 ], [ 48.63169907200006, 41.479538406000074 ], [ 48.65181627000004, 41.488437004000048 ], [ 48.646493952000071, 41.495975156000043 ], [ 48.641712248000033, 41.503763954000078 ], [ 48.639633802000048, 41.533716863000052 ], [ 48.63126901000004, 41.540078439000069 ], [ 48.620557996000059, 41.545596405000026 ], [ 48.614335406000066, 41.552723076000063 ], [ 48.614743445000045, 41.56053851300004 ], [ 48.622394170000064, 41.567050651000045 ], [ 48.628004701000066, 41.573868534000042 ], [ 48.638883074000034, 41.582041317000062 ], [ 48.643116874000043, 41.588959616000068 ], [ 48.633404040000073, 41.598307484000031 ], [ 48.623442159000035, 41.601485448000062 ], [ 48.604763633000061, 41.603354764000073 ], [ 48.596046987000079, 41.605037103000029 ], [ 48.582349401000045, 41.612513629000034 ], [ 48.578862742000069, 41.619615521000071 ], [ 48.575376084000027, 41.634751132000076 ], [ 48.575127037000073, 41.651564280000059 ], [ 48.575127037000073, 41.666692334000061 ], [ 48.576202921000061, 41.684318536000035 ], [ 48.58496937600006, 41.691726064000079 ], [ 48.592301320000047, 41.704149665000045 ], [ 48.597401803000025, 41.714660054000035 ], [ 48.601864726000031, 41.720989340000074 ], [ 48.591823149000049, 41.729347811000025 ], [ 48.582419134000077, 41.733884808000028 ], [ 48.570305487000041, 41.733884808000028 ], [ 48.554047698000034, 41.730780582000079 ], [ 48.541296490000036, 41.73304907000005 ], [ 48.51110776400003, 41.737220267000055 ] ] ] ] } }
]
}
