{
"type": "FeatureCollection",
"name": "tourism_atlas",
"crs": { "type": "name", "properties": { "name": "urn:ogc:def:crs:OGC:1.3:CRS84" } },
"features": [
{ "type": "Feature", "properties": { "print_id": "01", "legend_name": "İlisu / İlisy Dövlət Qoruğu (Qax)", "category": "natural", "color_hex": "#2e7d32", "source": "user_kml", "source_uid": "4e91cbf5a1091cdd", "source_name": "İlisy Devlet Rezervi", "true_lon": 47.0215224, "true_lat": 41.4991547, "label_lon": 47.0415224, "label_lat": 41.5091547 }, "geometry": { "type": "Point", "coordinates": [ 47.0415224, 41.5091547, 0.0 ] } },
{ "type": "Feature", "properties": { "print_id": "02", "legend_name": "Mamirli şəlaləsi (Zaqatala)", "category": "natural", "color_hex": "#2e7d32", "source": "user_kml", "source_uid": "8f9c810ee8ffb5ad", "source_name": "Mamirli Waterfall (\"Green Moss\")", "true_lon": 46.8518384, "true_lat": 41.4833468, "label_lon": 46.8318384, "label_lat": 41.4933468 }, "geometry": { "type": "Point", "coordinates": [ 46.8318384, 41.4933468, 0.0 ] } },
{ "type": "Feature", "properties": { "print_id": "03", "legend_name": "Zaqatala Dövlət Qoruğu", "category": "natural", "color_hex": "#2e7d32", "source": "user_kml", "source_uid": "1fd867ad3af1ddfe", "source_name": "Zagatala State Reserve", "true_lon": 46.5586048, "true_lat": 41.7870543, "label_lon": 46.5886048, "label_lat": 41.7770543 }, "geometry": { "type": "Point", "coordinates": [ 46.5886048, 41.7770543, 0.0 ] } },
{ "type": "Feature", "properties": { "print_id": "04", "legend_name": "Şəki Xan Sarayı", "category": "cultural", "color_hex": "#6a1b9a", "source": "user_kml", "source_uid": "1216f9e3acf13f13", "source_name": "Şəki Xan Sarayı (The Palace of Shaki Khans)", "true_lon": 47.1976291, "true_lat": 41.2044097, "label_lon": 47.1776291, "label_lat": 41.2194097 }, "geometry": { "type": "Point", "coordinates": [ 47.1776291, 41.2194097, 0.0 ] } },
{ "type": "Feature", "properties": { "print_id": "05", "legend_name": "Sheki Palace Hotel", "category": "lodging", "color_hex": "#ef6c00", "source": "user_kml", "source_uid": "26f26ff571254821", "source_name": "Sheki Palace Hotel", "true_lon": 47.1952556, "true_lat": 41.2004218, "label_lon": 47.2202556, "label_lat": 41.1904218 }, "geometry": { "type": "Point", "coordinates": [ 47.2202556, 41.1904218, 0.0 ] } },
{ "type": "Feature", "properties": { "print_id": "06", "legend_name": "Yeddi Gözəl şəlaləsi (Qəbələ)", "category": "natural", "color_hex": "#2e7d32", "source": "user_kml", "source_uid": "6d560a7b1fa1e246", "source_name": "Yeddi Gozel Waterfall", "true_lon": 47.913748, "true_lat": 40.9753297, "label_lon": 47.883748, "label_lat": 40.9953297 }, "geometry": { "type": "Point", "coordinates": [ 47.883748, 40.9953297, 0.0 ] } },
{ "type": "Feature", "properties": { "print_id": "07", "legend_name": "Alıbəy Bulağı Restoran (Qəbələ)", "category": "food", "color_hex": "#c62828", "source": "user_kml", "source_uid": "79fa3e8de01d6ee9", "source_name": "Qəbələ Restoran Alıbəy Bulağı", "true_lon": 47.8586041, "true_lat": 40.9990378, "label_lon": 47.8786041, "label_lat": 41.0190378 }, "geometry": { "type": "Point", "coordinates": [ 47.8786041, 41.0190378, 0.0 ] } },
{ "type": "Feature", "properties": { "print_id": "08", "legend_name": "Qafqaz Resort Hotel (Qəbələ)", "category": "lodging", "color_hex": "#ef6c00", "source": "user_kml", "source_uid": "bb2d750300e6957f", "source_name": "Qafqaz Resort Hotel", "true_lon": 47.8887036, "true_lat": 41.0150276, "label_lon": 47.9187036, "label_lat": 41.0000276 }, "geometry": { "type": "Point", "coordinates": [ 47.9187036, 41.0000276, 0.0 ] } },
{ "type": "Feature", "properties": { "print_id": "09", "legend_name": "Qəbələ Beynəlxalq Aeroport", "category": "transport", "color_hex": "#1565c0", "source": "osm_gap", "source_uid": "", "source_name": "Qəbələ Beynəlxalq Aeroport", "true_lon": 47.7218, "true_lat": 40.8146, "label_lon": 47.6818, "label_lat": 40.7946 }, "geometry": { "type": "Point", "coordinates": [ 47.6818, 40.7946, 0.0 ] } },
{ "type": "Feature", "properties": { "print_id": "10", "legend_name": "Lahıc", "category": "natural", "color_hex": "#2e7d32", "source": "user_kml", "source_uid": "0535057cc78077c2", "source_name": "Lahıc", "true_lon": 48.3856023, "true_lat": 40.8493459, "label_lon": 48.3656023, "label_lat": 40.8593459 }, "geometry": { "type": "Point", "coordinates": [ 48.3656023, 40.8593459, 0.0 ] } },
{ "type": "Feature", "properties": { "print_id": "11", "legend_name": "Basgal Dövlət Qoruğu", "category": "cultural", "color_hex": "#6a1b9a", "source": "user_kml", "source_uid": "38335eaf4a1d9903", "source_name": "Basgal State Historical-Cultural Reserve", "true_lon": 48.3905118, "true_lat": 40.7553097, "label_lon": 48.4105118, "label_lat": 40.7403097 }, "geometry": { "type": "Point", "coordinates": [ 48.4105118, 40.7403097, 0.0 ] } },
{ "type": "Feature", "properties": { "print_id": "12", "legend_name": "Shamakhi Palace Sharadil", "category": "lodging", "color_hex": "#ef6c00", "source": "user_kml", "source_uid": "099095b5254036d7", "source_name": "Shamakhi Palace Sharadil", "true_lon": 48.4692383, "true_lat": 40.6253882, "label_lon": 48.4992383, "label_lat": 40.6353882 }, "geometry": { "type": "Point", "coordinates": [ 48.4992383, 40.6353882, 0.0 ] } },
{ "type": "Feature", "properties": { "print_id": "13", "legend_name": "Quba Deyirman Restoran", "category": "food", "color_hex": "#c62828", "source": "user_kml", "source_uid": "f5cf8437aa30dff8", "source_name": "Quba Deyirman Restoran", "true_lon": 48.5455288, "true_lat": 41.3367183, "label_lon": 48.5205288, "label_lat": 41.3467183 }, "geometry": { "type": "Point", "coordinates": [ 48.5205288, 41.3467183, 0.0 ] } },
{ "type": "Feature", "properties": { "print_id": "14", "legend_name": "Terrace Hotel Quba", "category": "lodging", "color_hex": "#ef6c00", "source": "user_kml", "source_uid": "354f3daa61db7964", "source_name": "Terrace Hotel Quba", "true_lon": 48.4824625, "true_lat": 41.3573529, "label_lon": 48.5024625, "label_lat": 41.3723529 }, "geometry": { "type": "Point", "coordinates": [ 48.5024625, 41.3723529, 0.0 ] } },
{ "type": "Feature", "properties": { "print_id": "15", "legend_name": "Afurca şəlaləsi", "category": "natural", "color_hex": "#2e7d32", "source": "user_kml", "source_uid": "588635b81f91df1c", "source_name": "Afurca şelalesi", "true_lon": 48.6130316, "true_lat": 41.1717646, "label_lon": 48.6430316, "label_lat": 41.1617646 }, "geometry": { "type": "Point", "coordinates": [ 48.6430316, 41.1617646, 0.0 ] } },
{ "type": "Feature", "properties": { "print_id": "16", "legend_name": "Şahdağ", "category": "natural", "color_hex": "#2e7d32", "source": "user_kml", "source_uid": "b96b9dfe64ff6212", "source_name": "Şahdağ", "true_lon": 48.0113889, "true_lat": 41.2777778, "label_lon": 47.9813889, "label_lat": 41.2977778 }, "geometry": { "type": "Point", "coordinates": [ 47.9813889, 41.2977778, 0.0 ] } },
{ "type": "Feature", "properties": { "print_id": "17", "legend_name": "Shahdag Hotel & Spa", "category": "lodging", "color_hex": "#ef6c00", "source": "user_kml", "source_uid": "596348252ba72d11", "source_name": "Shahdag Hotel & Spa", "true_lon": 48.1366446, "true_lat": 41.3192786, "label_lon": 48.1716446, "label_lat": 41.3292786 }, "geometry": { "type": "Point", "coordinates": [ 48.1716446, 41.3292786, 0.0 ] } },
{ "type": "Feature", "properties": { "print_id": "18", "legend_name": "Xınalıq (Kınalık)", "category": "natural", "color_hex": "#2e7d32", "source": "user_kml", "source_uid": "48a12708e2d0ef49", "source_name": "Kınalık", "true_lon": 48.1259412, "true_lat": 41.1862001, "label_lon": 48.0859412, "label_lat": 41.1962001 }, "geometry": { "type": "Point", "coordinates": [ 48.0859412, 41.1962001, 0.0 ] } },
{ "type": "Feature", "properties": { "print_id": "19", "legend_name": "Samur–Yalama parkı", "category": "natural", "color_hex": "#2e7d32", "source": "user_kml", "source_uid": "98f22306cca4ff3d", "source_name": "Samur-Yalama parkı", "true_lon": 48.6224446, "true_lat": 41.7862196, "label_lon": 48.6424446, "label_lat": 41.8012196 }, "geometry": { "type": "Point", "coordinates": [ 48.6424446, 41.8012196, 0.0 ] } },
{ "type": "Feature", "properties": { "print_id": "20", "legend_name": "Fontan Nabran Restoran", "category": "food", "color_hex": "#c62828", "source": "user_kml", "source_uid": "5d6a66742511a586", "source_name": "Fontan Nabran Restoran", "true_lon": 48.6633065, "true_lat": 41.7775364, "label_lon": 48.6433065, "label_lat": 41.7675364 }, "geometry": { "type": "Point", "coordinates": [ 48.6433065, 41.7675364, 0.0 ] } },
{ "type": "Feature", "properties": { "print_id": "21", "legend_name": "Altıağac Millî Parkı", "category": "natural", "color_hex": "#2e7d32", "source": "user_kml", "source_uid": "165f84968b61da60", "source_name": "Altıağac Millî Parkı", "true_lon": 49.0273549, "true_lat": 40.8762849, "label_lon": 48.9973549, "label_lat": 40.8862849 }, "geometry": { "type": "Point", "coordinates": [ 48.9973549, 40.8862849, 0.0 ] } },
{ "type": "Feature", "properties": { "print_id": "22", "legend_name": "Candy Cane Mountains", "category": "natural", "color_hex": "#2e7d32", "source": "user_kml", "source_uid": "626e8c45efd14cf0", "source_name": "Candy Cane Mountains", "true_lon": 49.199701, "true_lat": 40.8769103, "label_lon": 49.229701, "label_lat": 40.8919103 }, "geometry": { "type": "Point", "coordinates": [ 49.229701, 40.8919103, 0.0 ] } },
{ "type": "Feature", "properties": { "print_id": "23", "legend_name": "Beşbarmaq", "category": "cultural", "color_hex": "#6a1b9a", "source": "user_kml", "source_uid": "8c339c8b40d1b81f", "source_name": "Beshbarmaq", "true_lon": 49.2320538, "true_lat": 40.9578634, "label_lon": 49.2120538, "label_lat": 40.9778634 }, "geometry": { "type": "Point", "coordinates": [ 49.2120538, 40.9778634, 0.0 ] } },
{ "type": "Feature", "properties": { "print_id": "24", "legend_name": "Yanardağ", "category": "cultural", "color_hex": "#6a1b9a", "source": "user_kml", "source_uid": "564fe8dfe8dcd947", "source_name": "Yanardağ Tarix-Mədəniyyət və Təbiət Qoruğu", "true_lon": 49.890208, "true_lat": 40.502236, "label_lon": 49.920208, "label_lat": 40.512236 }, "geometry": { "type": "Point", "coordinates": [ 49.920208, 40.512236, 0.0 ] } },
{ "type": "Feature", "properties": { "print_id": "25", "legend_name": "Bakı – İçərişəhər", "category": "cultural", "color_hex": "#6a1b9a", "source": "user_kml", "source_uid": "a723f83f09f7f67e", "source_name": "İçerişehir", "true_lon": 49.8349644, "true_lat": 40.366267, "label_lon": 49.7949644, "label_lat": 40.346267 }, "geometry": { "type": "Point", "coordinates": [ 49.7949644, 40.346267, 0.0 ] } },
{ "type": "Feature", "properties": { "print_id": "26", "legend_name": "Heydər Əliyev Mərkəzi (Bakı)", "category": "cultural", "color_hex": "#6a1b9a", "source": "user_kml", "source_uid": "f794d0543eef40a4", "source_name": "Heydər Əliyev Mərkəzi", "true_lon": 49.8678151, "true_lat": 40.3958984, "label_lon": 49.9078151, "label_lat": 40.4208984 }, "geometry": { "type": "Point", "coordinates": [ 49.9078151, 40.4208984, 0.0 ] } },
{ "type": "Feature", "properties": { "print_id": "27", "legend_name": "Four Seasons Hotel Baku", "category": "lodging", "color_hex": "#ef6c00", "source": "user_kml", "source_uid": "9f8e0011018ab143", "source_name": "Four Seasons Hotel Baku", "true_lon": 49.8349304, "true_lat": 40.3632536, "label_lon": 49.8049304, "label_lat": 40.3932536 }, "geometry": { "type": "Point", "coordinates": [ 49.8049304, 40.3932536, 0.0 ] } },
{ "type": "Feature", "properties": { "print_id": "28", "legend_name": "Heydər Əliyev Aeroportu (GYD)", "category": "transport", "color_hex": "#1565c0", "source": "osm_gap", "source_uid": "", "source_name": "Heydər Əliyev Aeroportu (GYD)", "true_lon": 50.0442, "true_lat": 40.4686, "label_lon": 50.0942, "label_lat": 40.4886 }, "geometry": { "type": "Point", "coordinates": [ 50.0942, 40.4886, 0.0 ] } },
{ "type": "Feature", "properties": { "print_id": "29", "legend_name": "Jumeirah Bilgah Beach Hotel", "category": "lodging", "color_hex": "#ef6c00", "source": "user_kml", "source_uid": "c2ffd3256661aff9", "source_name": "Jumeirah Bilgah Beach Hotel", "true_lon": 50.0611458, "true_lat": 40.5781441, "label_lon": 50.1011458, "label_lat": 40.5981441 }, "geometry": { "type": "Point", "coordinates": [ 50.1011458, 40.5981441, 0.0 ] } },
{ "type": "Feature", "properties": { "print_id": "30", "legend_name": "Amburan Beach Club", "category": "natural", "color_hex": "#2e7d32", "source": "user_kml", "source_uid": "856fa153141072d7", "source_name": "Amburan Beach Club", "true_lon": 50.0639851, "true_lat": 40.5877825, "label_lon": 50.0939851, "label_lat": 40.5727825 }, "geometry": { "type": "Point", "coordinates": [ 50.0939851, 40.5727825, 0.0 ] } },
{ "type": "Feature", "properties": { "print_id": "31", "legend_name": "Qobustan Millî Parkı", "category": "cultural", "color_hex": "#6a1b9a", "source": "user_kml", "source_uid": "e136f428141736f2", "source_name": "Kobustan Millî Parkı", "true_lon": 49.378386, "true_lat": 40.1114461, "label_lon": 49.348386, "label_lat": 40.1314461 }, "geometry": { "type": "Point", "coordinates": [ 49.348386, 40.1314461, 0.0 ] } },
{ "type": "Feature", "properties": { "print_id": "32", "legend_name": "Palçıq vulkanı (Qobustan)", "category": "natural", "color_hex": "#2e7d32", "source": "user_kml", "source_uid": "ebbf0d122a9ca0d8", "source_name": "Mud volcano tourist park", "true_lon": 49.236749, "true_lat": 40.1847366, "label_lon": 49.266749, "label_lat": 40.1647366 }, "geometry": { "type": "Point", "coordinates": [ 49.266749, 40.1647366, 0.0 ] } },
{ "type": "Feature", "properties": { "print_id": "33", "legend_name": "Şirvan Millî Parkı", "category": "natural", "color_hex": "#2e7d32", "source": "user_kml", "source_uid": "a1e41374cbbd010e", "source_name": "Shirvan National Park", "true_lon": 49.1218388, "true_lat": 39.5801052, "label_lon": 49.1418388, "label_lat": 39.5901052 }, "geometry": { "type": "Point", "coordinates": [ 49.1418388, 39.5901052, 0.0 ] } },
{ "type": "Feature", "properties": { "print_id": "34", "legend_name": "Hirkan Millî Parkı", "category": "natural", "color_hex": "#2e7d32", "source": "user_kml", "source_uid": "d51b8c031af584ef", "source_name": "Hirkan Millî Parkı", "true_lon": 48.6927919, "true_lat": 38.4742521, "label_lon": 48.6627919, "label_lat": 38.4842521 }, "geometry": { "type": "Point", "coordinates": [ 48.6627919, 38.4842521, 0.0 ] } },
{ "type": "Feature", "properties": { "print_id": "35", "legend_name": "Xan Sarayı (Lənkəran)", "category": "cultural", "color_hex": "#6a1b9a", "source": "user_kml", "source_uid": "f428dccf10fef0b7", "source_name": "Khan Palace (Lankaran Museum of History and Ethnography)", "true_lon": 48.8563889, "true_lat": 38.7541667, "label_lon": 48.8763889, "label_lat": 38.7691667 }, "geometry": { "type": "Point", "coordinates": [ 48.8763889, 38.7691667, 0.0 ] } },
{ "type": "Feature", "properties": { "print_id": "36", "legend_name": "Boranı Restoran (Lənkəran)", "category": "food", "color_hex": "#c62828", "source": "user_kml", "source_uid": "3cea2d063b9c69f2", "source_name": "Boranı Restoran (Lənkəran Filialı)", "true_lon": 48.8546486, "true_lat": 38.7576905, "label_lon": 48.8296486, "label_lat": 38.7476905 }, "geometry": { "type": "Point", "coordinates": [ 48.8296486, 38.7476905, 0.0 ] } },
{ "type": "Feature", "properties": { "print_id": "37", "legend_name": "Lənkəran Aeroportu", "category": "transport", "color_hex": "#1565c0", "source": "osm_gap", "source_uid": "", "source_name": "Lənkəran Aeroportu", "true_lon": 48.8118, "true_lat": 38.7528, "label_lon": 48.8518, "label_lat": 38.7328 }, "geometry": { "type": "Point", "coordinates": [ 48.8518, 38.7328, 0.0 ] } },
{ "type": "Feature", "properties": { "print_id": "38", "legend_name": "Palmalife Lankaran Resort", "category": "lodging", "color_hex": "#ef6c00", "source": "user_kml", "source_uid": "b16fb8fe7ae29766", "source_name": "Palmalife Lankaran Resort", "true_lon": 48.8620353, "true_lat": 38.7345839, "label_lon": 48.8920353, "label_lat": 38.7545839 }, "geometry": { "type": "Point", "coordinates": [ 48.8920353, 38.7545839, 0.0 ] } },
{ "type": "Feature", "properties": { "print_id": "39", "legend_name": "Qızılağac Millî Parkı", "category": "natural", "color_hex": "#2e7d32", "source": "user_kml", "source_uid": "ad5a5e4620dcaa30", "source_name": "Qızılağac milli parkı", "true_lon": 48.9223709, "true_lat": 38.9598765, "label_lon": 48.9023709, "label_lat": 38.9798765 }, "geometry": { "type": "Point", "coordinates": [ 48.9023709, 38.9798765, 0.0 ] } },
{ "type": "Feature", "properties": { "print_id": "40", "legend_name": "Mingəçevir Çinar Restoranı", "category": "food", "color_hex": "#c62828", "source": "user_kml", "source_uid": "a8d2eecc5e592b81", "source_name": "Mingecevir Çinar Restoranı", "true_lon": 47.0334293, "true_lat": 40.7713007, "label_lon": 47.0534293, "label_lat": 40.7863007 }, "geometry": { "type": "Point", "coordinates": [ 47.0534293, 40.7863007, 0.0 ] } },
{ "type": "Feature", "properties": { "print_id": "41", "legend_name": "Gəncə Beynəlxalq Hava Limanı", "category": "transport", "color_hex": "#1565c0", "source": "osm_gap", "source_uid": "", "source_name": "Gəncə Beynəlxalq Hava Limanı", "true_lon": 46.3167, "true_lat": 40.7367, "label_lon": 46.2867, "label_lat": 40.7567 }, "geometry": { "type": "Point", "coordinates": [ 46.2867, 40.7567, 0.0 ] } },
{ "type": "Feature", "properties": { "print_id": "42", "legend_name": "Ramada Plaza Gəncə", "category": "lodging", "color_hex": "#ef6c00", "source": "user_kml", "source_uid": "9a4b3dfcd271db0f", "source_name": "Ramada Plaza by Wyndham Gence", "true_lon": 46.338567, "true_lat": 40.687923, "label_lon": 46.368567, "label_lat": 40.672923 }, "geometry": { "type": "Point", "coordinates": [ 46.368567, 40.672923, 0.0 ] } },
{ "type": "Feature", "properties": { "print_id": "43", "legend_name": "Chinar Hotel Naftalan", "category": "lodging", "color_hex": "#ef6c00", "source": "user_kml", "source_uid": "ea0ea154a20087f6", "source_name": "Chinar Hotel & SPA Naftalan", "true_lon": 46.8202883, "true_lat": 40.4997478, "label_lon": 46.8402883, "label_lat": 40.5097478 }, "geometry": { "type": "Point", "coordinates": [ 46.8402883, 40.5097478, 0.0 ] } },
{ "type": "Feature", "properties": { "print_id": "44", "legend_name": "Batabat gölü", "category": "natural", "color_hex": "#2e7d32", "source": "user_kml", "source_uid": "affaca893ff14d53", "source_name": "Batabat gölü", "true_lon": 45.8018771, "true_lat": 39.5413124, "label_lon": 45.8318771, "label_lat": 39.5613124 }, "geometry": { "type": "Point", "coordinates": [ 45.8318771, 39.5613124, 0.0 ] } },
{ "type": "Feature", "properties": { "print_id": "45", "legend_name": "Əlincə Qalası", "category": "cultural", "color_hex": "#6a1b9a", "source": "user_kml", "source_uid": "4b4e761f9611e9b1", "source_name": "Əlincə Qalası", "true_lon": 45.696861, "true_lat": 39.194415, "label_lon": 45.676861, "label_lat": 39.209415 }, "geometry": { "type": "Point", "coordinates": [ 45.676861, 39.209415, 0.0 ] } },
{ "type": "Feature", "properties": { "print_id": "46", "legend_name": "Möminə Xatun türbəsi", "category": "cultural", "color_hex": "#6a1b9a", "source": "user_kml", "source_uid": "67e34fc4711d71aa", "source_name": "Mümine Hatun Türbesi", "true_lon": 45.4061719, "true_lat": 39.2050375, "label_lon": 45.4311719, "label_lat": 39.2250375 }, "geometry": { "type": "Point", "coordinates": [ 45.4311719, 39.2250375, 0.0 ] } },
{ "type": "Feature", "properties": { "print_id": "47", "legend_name": "Naxçıvan Hava Limanı", "category": "transport", "color_hex": "#1565c0", "source": "osm_gap", "source_uid": "", "source_name": "Naxçıvan Hava Limanı", "true_lon": 45.459, "true_lat": 39.1867, "label_lon": 45.429, "label_lat": 39.1667 }, "geometry": { "type": "Point", "coordinates": [ 45.429, 39.1667, 0.0 ] } },
{ "type": "Feature", "properties": { "print_id": "48", "legend_name": "Duzdağ Hotel (Naxçıvan)", "category": "lodging", "color_hex": "#ef6c00", "source": "user_kml", "source_uid": "f8b618ecfef31a69", "source_name": "Duzdag Hotel", "true_lon": 45.3346477, "true_lat": 39.275815, "label_lon": 45.3646477, "label_lat": 39.260815 }, "geometry": { "type": "Point", "coordinates": [ 45.3646477, 39.260815, 0.0 ] } },
{ "type": "Feature", "properties": { "print_id": "49", "legend_name": "Əshabi-Kəhf", "category": "cultural", "color_hex": "#6a1b9a", "source": "user_kml", "source_uid": "e6d02ef048bf2e11", "source_name": "Ashab-i Kehf", "true_lon": 45.5892626, "true_lat": 39.2206727, "label_lon": 45.6292626, "label_lat": 39.2306727 }, "geometry": { "type": "Point", "coordinates": [ 45.6292626, 39.2306727, 0.0 ] } },
{ "type": "Feature", "properties": { "print_id": "50", "legend_name": "Naxçıvan Qala", "category": "cultural", "color_hex": "#6a1b9a", "source": "user_kml", "source_uid": "99724988155305b8", "source_name": "Naxçıvan Qala Tarix Memarlıq Abidəsi", "true_lon": 45.412395, "true_lat": 39.1970743, "label_lon": 45.387395, "label_lat": 39.1770743 }, "geometry": { "type": "Point", "coordinates": [ 45.387395, 39.1770743, 0.0 ] } }
]
}
